[{"OBJECT_NAME":"KINEIS-2C","OBJECT_ID":"2025-028B","EPOCH":"2026-03-09T22:20:44.060928","MEAN_MOTION":14.72317253,"ECCENTRICITY":9.527e-5,"INCLINATION":98.0273,"RA_OF_ASC_NODE":124.0949,"ARG_OF_PERICENTER":34.6076,"MEAN_ANOMALY":325.5193,"EPHEMERIS_TYPE":0,"CLASSIFICATION_TYPE":"U","NORAD_CAT_ID":62929,"ELEMENT_SET_NO":999,"REV_AT_EPOCH":5800,"BSTAR":0.00026506877,"MEAN_MOTION_DOT":1.626e-5,"MEAN_MOTION_DDOT":0},{"OBJECT_NAME":"CZ-6A DEB","OBJECT_ID":"2022-151WE","EPOCH":"2026-03-09T02:33:05.538240","MEAN_MOTION":14.55661756,"ECCENTRICITY":0.00899926,"INCLINATION":98.6272,"RA_OF_ASC_NODE":118.6853,"ARG_OF_PERICENTER":261.6542,"MEAN_ANOMALY":97.4444,"EPHEMERIS_TYPE":0,"CLASSIFICATION_TYPE":"U","NORAD_CAT_ID":55213,"ELEMENT_SET_NO":999,"REV_AT_EPOCH":16956,"BSTAR":0.0018489114,"MEAN_MOTION_DOT":8.484e-5,"MEAN_MOTION_DDOT":0}]
